     2              NAVIGATION DATA                         RINEX VERSION / TYPE
CCRINEXN V1.6.0 UX  CDDIS               01-MAY-17 17:31     PGM / RUN BY / DATE 
IGS BROADCAST EPHEMERIS FILE                                COMMENT             
    0.9313D-08  0.1490D-07 -0.5960D-07 -0.1192D-06          ION ALPHA           
    0.8806D+05  0.4915D+05 -0.1311D+06 -0.3277D+06          ION BETA            
    0.186264514923D-08 0.266453525910D-14   233472     1947 DELTA-UTC: A0,A1,T,W
    18                                                      LEAP SECONDS        
                                                            END OF HEADER       
11 17  4 30 12  0  0.0-0.684834085405D-03-0.261479726760D-11 0.000000000000D+00
    0.890000000000D+02-0.709687500000D+02 0.577845498156D-08 0.860312543676D+00
   -0.386312603950D-05 0.166851766408D-01 0.103190541267D-04 0.515371099853D+04
    0.432000000000D+05-0.210478901863D-06-0.241465570733D+01-0.197440385819D-06
    0.900593106461D+00 0.152093750000D+03 0.163594255583D+01-0.889072747734D-08
    0.203937066226D-09 0.100000000000D+01 0.194700000000D+04 0.000000000000D+00
    0.200000000000D+01 0.000000000000D+00-0.121071934700D-07 0.890000000000D+02
    0.360000000000D+05 0.400000000000D+01 0.000000000000D+00 0.000000000000D+00
12 17  4 30 12  0  0.0 0.384525395930D-03-0.682121026330D-12 0.000000000000D+00
    0.150000000000D+02 0.380625000000D+02 0.411552857114D-08 0.265197586064D+00
    0.196509063244D-05 0.668082037009D-02 0.256113708019D-05 0.515354137993D+04
    0.432000000000D+05-0.670552253723D-07 0.222737754447D+01 0.111758708954D-06
    0.989229899705D+00 0.343781250000D+03 0.846440801885D+00-0.828070206734D-08
   -0.535736601294D-11 0.100000000000D+01 0.194700000000D+04 0.000000000000D+00
    0.200000000000D+01 0.000000000000D+00-0.125728547573D-07 0.150000000000D+02
    0.360000000000D+05 0.400000000000D+01 0.000000000000D+00 0.000000000000D+00
14 17  4 30 12  0  0.0-0.689127482474D-04-0.147792889038D-11 0.000000000000D+00
    0.550000000000D+02-0.375000000000D+01 0.459626288137D-08-0.301450500870D+01
   -0.171363353729D-06 0.899688550271D-02 0.964663922787D-05 0.515364510346D+04
    0.432000000000D+05 0.137835741043D-06 0.151354534375D+00-0.145286321640D-06
    0.962655526124D+00 0.191968750000D+03-0.196262568614D+01-0.786139888739D-08
   -0.476448417418D-09 0.100000000000D+01 0.194700000000D+04 0.000000000000D+00
    0.200000000000D+01 0.000000000000D+00-0.931322574616D-08 0.550000000000D+02
    0.360000000000D+05 0.400000000000D+01 0.000000000000D+00 0.000000000000D+00
15 17  4 30 12  0  0.0-0.348948873579D-03-0.795807864051D-12 0.000000000000D+00
    0.480000000000D+02-0.837500000000D+01 0.551344394279D-08 0.272440213179D+01
   -0.502914190292D-06 0.911155319773D-02 0.869110226631D-05 0.515378062248D+04
    0.432000000000D+05-0.707805156708D-07 0.396674333364D-02-0.149011611938D-06
    0.929651017548D+00 0.195750000000D+03 0.581094894946D+00-0.824212903204D-08
   -0.472519682341D-09 0.100000000000D+01 0.194700000000D+04 0.000000000000D+00
    0.200000000000D+01 0.000000000000D+00-0.107102096081D-07 0.480000000000D+02
    0.360000000000D+05 0.400000000000D+01 0.000000000000D+00 0.000000000000D+00
17 17  4 30 12  0  0.0-0.181735493243D-03 0.170530256582D-11 0.000000000000D+00
    0.240000000000D+02-0.126812500000D+03 0.380372986919D-08-0.271471211354D+01
   -0.642426311970D-05 0.116200727643D-01 0.738538801670D-05 0.515362655640D+04
    0.432000000000D+05 0.104308128357D-06-0.301940066991D+01-0.149011611938D-07
    0.980047714441D+00 0.245031250000D+03-0.184881845839D+01-0.770246369567D-08
   -0.133934150323D-09 0.100000000000D+01 0.194700000000D+04 0.000000000000D+00
    0.200000000000D+01 0.000000000000D+00-0.111758708954D-07 0.240000000000D+02
    0.360000000000D+05 0.400000000000D+01 0.000000000000D+00 0.000000000000D+00
18 17  4 30 12  0  0.0 0.613141339272D-03 0.193267624127D-11 0.000000000000D+00
    0.890000000000D+02 0.178437500000D+02 0.577345477328D-08-0.123919374384D+01
    0.140443444252D-05 0.180181724718D-01 0.626966357231D-05 0.515374863815D+04
    0.432000000000D+05 0.242143869400D-07-0.101630037221D+01 0.433996319771D-06
    0.925298627065D+00 0.240625000000D+03-0.180927397454D+01-0.866250368519D-08
    0.314655963827D-09 0.100000000000D+01 0.194700000000D+04 0.000000000000D+00
    0.200000000000D+01 0.000000000000D+00-0.111758708954D-07 0.890000000000D+02
    0.368580000000D+05 0.400000000000D+01 0.000000000000D+00 0.000000000000D+00
19 17  4 30 12  0  0.0-0.505365896970D-03 0.136424205266D-11 0.000000000000D+00
    0.480000000000D+02-0.114468750000D+03 0.394266422779D-08 0.398154525580D+00
   -0.580586493015D-05 0.102658178657D-01 0.757910311222D-05 0.515366616821D+04
    0.432000000000D+05-0.206753611565D-06-0.297151964205D+01 0.195577740669D-06
    0.977294463117D+00 0.244812500000D+03 0.956257347111D+00-0.801711965950D-08
   -0.196079596074D-09 0.100000000000D+01 0.194700000000D+04 0.000000000000D+00
    0.200000000000D+01 0.000000000000D+00-0.153668224812D-07 0.480000000000D+02
    0.360000000000D+05 0.400000000000D+01 0.000000000000D+00 0.000000000000D+00
21 17  4 30 12  0  0.0-0.509633217007D-03 0.204636307899D-11 0.000000000000D+00
    0.740000000000D+02-0.400312500000D+02 0.495734935064D-08-0.326829935607D+00
   -0.206753611565D-05 0.239925977075D-01 0.105295330286D-04 0.515369153023D+04
    0.432000000000D+05-0.312924385071D-06-0.205733023933D+01 0.264495611191D-06
    0.939280765043D+00 0.173968750000D+03-0.167784807827D+01-0.854428447517D-08
    0.550380068396D-09 0.100000000000D+01 0.194700000000D+04 0.000000000000D+00
    0.200000000000D+01 0.000000000000D+00-0.977888703346D-08 0.740000000000D+02
    0.360180000000D+05 0.400000000000D+01 0.000000000000D+00 0.000000000000D+00
22 17  4 30 12  0  0.0 0.250441953540D-04-0.120508047985D-10 0.000000000000D+00
    0.810000000000D+02 0.146875000000D+02 0.584274337371D-08 0.310395833406D+01
    0.480562448502D-06 0.760909845121D-02 0.590458512306D-05 0.515352133179D+04
    0.432000000000D+05 0.169500708580D-06-0.101639305100D+01-0.614672899246D-07
    0.923328203686D+00 0.246218750000D+03-0.175669530461D+01-0.857285709391D-08
    0.256082095419D-09 0.100000000000D+01 0.194700000000D+04 0.000000000000D+00
    0.200000000000D+01 0.000000000000D+00-0.176951289177D-07 0.810000000000D+02
    0.360000000000D+05 0.400000000000D+01 0.000000000000D+00 0.000000000000D+00
23 17  4 30 12  0  0.0-0.210852827877D-03-0.795807864051D-12 0.000000000000D+00
    0.480000000000D+02-0.281250000000D+01 0.502770935995D-08 0.228831362108D+01
   -0.227242708206D-06 0.116093524266D-01 0.944361090660D-05 0.515375889397D+04
    0.432000000000D+05-0.203028321266D-06 0.669323686190D-01-0.149011611938D-06
    0.944915331539D+00 0.193250000000D+03-0.247425307345D+01-0.806140754150D-08
   -0.455018966949D-09 0.100000000000D+01 0.194700000000D+04 0.000000000000D+00
    0.200000000000D+01 0.000000000000D+00-0.204890966415D-07 0.480000000000D+02
    0.360000000000D+05 0.000000000000D+00 0.000000000000D+00 0.000000000000D+00
24 17  4 30 12  0  0.0-0.341045670211D-04-0.454747350886D-12 0.000000000000D+00
    0.680000000000D+02 0.990625000000D+02 0.473198282036D-08 0.165511101196D+01
    0.526197254658D-05 0.564109673724D-02 0.103395432234D-04 0.515370311165D+04
    0.432000000000D+05-0.931322574615D-07 0.109021885784D+01 0.111758708954D-06
    0.945653184994D+00 0.171906250000D+03 0.490309118931D+00-0.820034157714D-08
   -0.168935608275D-09 0.100000000000D+01 0.194700000000D+04 0.000000000000D+00
    0.290000000000D+01 0.000000000000D+00 0.279396772385D-08 0.680000000000D+02
    0.375900000000D+05 0.400000000000D+01 0.000000000000D+00 0.000000000000D+00
25 17  4 30 12  0  0.0-0.379017088562D-03-0.659383658785D-11 0.000000000000D+00
    0.920000000000D+02 0.392500000000D+02 0.443768484739D-08-0.298669931453D+00
    0.205077230930D-05 0.647993211169D-02 0.253692269325D-05 0.515359732056D+04
    0.432000000000D+05-0.409781932831D-07 0.217241347836D+01 0.726431608200D-07
    0.977144300428D+00 0.335937500000D+03 0.799250372306D+00-0.843356557757D-08
   -0.103575742917D-10 0.100000000000D+01 0.194700000000D+04 0.000000000000D+00
    0.200000000000D+01 0.000000000000D+00 0.558793544769D-08 0.920000000000D+02
    0.360180000000D+05 0.400000000000D+01 0.000000000000D+00 0.000000000000D+00
26 17  4 30 12  0  0.0-0.509129371494D-03 0.352429196937D-11 0.000000000000D+00
    0.730000000000D+02 0.313125000000D+02 0.462197823823D-08-0.892323309556D+00
    0.165589153767D-05 0.182019302156D-02 0.231154263020D-05 0.515369625282D+04
    0.432000000000D+05 0.204890966415D-07 0.215746469971D+01-0.223517417908D-07
    0.958926376778D+00 0.335437500000D+03 0.752009498385D-01-0.842820821156D-08
   -0.317870383435D-10 0.100000000000D+01 0.194700000000D+04 0.000000000000D+00
    0.200000000000D+01 0.000000000000D+00 0.745058059692D-08 0.730000000000D+02
    0.360180000000D+05 0.400000000000D+01 0.000000000000D+00 0.000000000000D+00
27 17  4 30 12  0  0.0 0.249511096626D-03 0.648014975013D-11 0.000000000000D+00
    0.550000000000D+02-0.104500000000D+03 0.396302221864D-08-0.262044201629D+01
   -0.539235770702D-05 0.475908559747D-02 0.675395131111D-05 0.515366904449D+04
    0.432000000000D+05-0.167638063431D-07-0.307120244841D+01-0.279396772385D-07
    0.974945413133D+00 0.258125000000D+03 0.326167056704D+00-0.791604402072D-08
   -0.771460705863D-10 0.100000000000D+01 0.194700000000D+04 0.000000000000D+00
    0.200000000000D+01 0.000000000000D+00 0.139698386192D-08 0.550000000000D+02
    0.424380000000D+05 0.400000000000D+01 0.000000000000D+00 0.000000000000D+00
